[{"OBJECT_NAME":"STARLINK-5599","OBJECT_ID":"2023-028AB","EPOCH":"2026-03-09T19:52:09.580224","MEAN_MOTION":14.98323956,"ECCENTRICITY":0.00030597,"INCLINATION":69.9999,"RA_OF_ASC_NODE":224.1123,"ARG_OF_PERICENTER":269.3112,"MEAN_ANOMALY":90.7696,"EPHEMERIS_TYPE":0,"CLASSIFICATION_TYPE":"U","NORAD_CAT_ID":55766,"ELEMENT_SET_NO":999,"REV_AT_EPOCH":16655,"BSTAR":-0.00012890269,"MEAN_MOTION_DOT":-1.63e-5,"MEAN_MOTION_DDOT":0},{"OBJECT_NAME":"CZ-2C R\/B","OBJECT_ID":"2023-187D","EPOCH":"2026-03-09T21:18:27.461376","MEAN_MOTION":14.91546811,"ECCENTRICITY":0.00358476,"INCLINATION":98.1132,"RA_OF_ASC_NODE":178.247,"ARG_OF_PERICENTER":167.8673,"MEAN_ANOMALY":192.3416,"EPHEMERIS_TYPE":0,"CLASSIFICATION_TYPE":"U","NORAD_CAT_ID":58499,"ELEMENT_SET_NO":999,"REV_AT_EPOCH":12301,"BSTAR":0.00023879444,"MEAN_MOTION_DOT":2.36e-5,"MEAN_MOTION_DDOT":0}]
